name,name_bn,iso_code_2,iso_code_3,phone_code,currency_code,flag_emoji,region,nationality,is_active
Bangladesh,ржмрж╛ржВрж▓рж╛ржжрзЗрж╢,BD,BGD,+880,BDT,ЁЯЗзЁЯЗй,Asia,Bangladeshi,1
United States,ржпрзБржХрзНрждрж░рж╛рж╖рзНржЯрзНрж░,US,USA,+1,USD,ЁЯЗ║ЁЯЗ╕,Americas,American,1
United Kingdom,ржпрзБржХрзНрждрж░рж╛ржЬрзНржп,GB,GBR,+44,GBP,ЁЯЗмЁЯЗз,Europe,British,1
Canada,ржХрж╛ржирж╛ржбрж╛,CA,CAN,+1,CAD,ЁЯЗиЁЯЗж,Americas,Canadian,1
Australia,ржЕрж╕рзНржЯрзНрж░рзЗрж▓рж┐ржпрж╝рж╛,AU,AUS,+61,AUD,ЁЯЗжЁЯЗ║,Oceania,Australian,1
Germany,ржЬрж╛рж░рзНржорж╛ржирж┐,DE,DEU,+49,EUR,ЁЯЗйЁЯЗк,Europe,German,1
France,ржлрзНрж░рж╛ржирзНрж╕,FR,FRA,+33,EUR,ЁЯЗлЁЯЗ╖,Europe,French,1
India,ржнрж╛рж░ржд,IN,IND,+91,INR,ЁЯЗоЁЯЗ│,Asia,Indian,1
China,ржЪрзАржи,CN,CHN,+86,CNY,ЁЯЗиЁЯЗ│,Asia,Chinese,1
Japan,ржЬрж╛ржкрж╛ржи,JP,JPN,+81,JPY,ЁЯЗпЁЯЗ╡,Asia,Japanese,1
South Korea,ржжржХрзНрж╖рж┐ржг ржХрзЛрж░рж┐ржпрж╝рж╛,KR,KOR,+82,KRW,ЁЯЗ░ЁЯЗ╖,Asia,South Korean,1
Singapore,рж╕рж┐ржЩрзНржЧрж╛ржкрзБрж░,SG,SGP,+65,SGD,ЁЯЗ╕ЁЯЗм,Asia,Singaporean,1
Malaysia,ржорж╛рж▓ржпрж╝рзЗрж╢рж┐ржпрж╝рж╛,MY,MYS,+60,MYR,ЁЯЗ▓ЁЯЗ╛,Asia,Malaysian,1
Thailand,ржерж╛ржЗрж▓рзНржпрж╛ржирзНржб,TH,THA,+66,THB,ЁЯЗ╣ЁЯЗн,Asia,Thai,1
United Arab Emirates,рж╕ржВржпрзБржХрзНржд ржЖрж░ржм ржЖржорж┐рж░рж╛ржд,AE,ARE,+971,AED,ЁЯЗжЁЯЗк,Asia,Emirati,1
Saudi Arabia,рж╕рзМржжрж┐ ржЖрж░ржм,SA,SAU,+966,SAR,ЁЯЗ╕ЁЯЗж,Asia,Saudi,1
Qatar,ржХрж╛рждрж╛рж░,QA,QAT,+974,QAR,ЁЯЗ╢ЁЯЗж,Asia,Qatari,1
Kuwait,ржХрзБржпрж╝рзЗржд,KW,KWT,+965,KWD,ЁЯЗ░ЁЯЗ╝,Asia,Kuwaiti,1
Oman,ржУржорж╛ржи,OM,OMN,+968,OMR,ЁЯЗ┤ЁЯЗ▓,Asia,Omani,1
Bahrain,ржмрж╛рж╣рж░рж╛ржЗржи,BH,BHR,+973,BHD,ЁЯЗзЁЯЗн,Asia,Bahraini,1
Turkey,рждрзБрж░рж╕рзНржХ,TR,TUR,+90,TRY,ЁЯЗ╣ЁЯЗ╖,Asia,Turkish,1
Italy,ржЗрждрж╛рж▓рж┐,IT,ITA,+39,EUR,ЁЯЗоЁЯЗ╣,Europe,Italian,1
Spain,рж╕рзНржкрзЗржи,ES,ESP,+34,EUR,ЁЯЗкЁЯЗ╕,Europe,Spanish,1
Netherlands,ржирзЗржжрж╛рж░рж▓рзНржпрж╛ржирзНржб,NL,NLD,+31,EUR,ЁЯЗ│ЁЯЗ▒,Europe,Dutch,1
Sweden,рж╕рзБржЗржбрзЗржи,SE,SWE,+46,SEK,ЁЯЗ╕ЁЯЗк,Europe,Swedish,1
Norway,ржирж░ржУржпрж╝рзЗ,NO,NOR,+47,NOK,ЁЯЗ│ЁЯЗ┤,Europe,Norwegian,1
Denmark,ржбрзЗржиржорж╛рж░рзНржХ,DK,DNK,+45,DKK,ЁЯЗйЁЯЗ░,Europe,Danish,1
Finland,ржлрж┐ржирж▓рзНржпрж╛ржирзНржб,FI,FIN,+358,EUR,ЁЯЗлЁЯЗо,Europe,Finnish,1
Switzerland,рж╕рзНржмрж┐ржЯржЬрж╛рж░рж▓рзНржпрж╛ржирзНржб,CH,CHE,+41,CHF,ЁЯЗиЁЯЗн,Europe,Swiss,1
Austria,ржЕрж╕рзНржЯрзНрж░рж┐ржпрж╝рж╛,AT,AUT,+43,EUR,ЁЯЗжЁЯЗ╣,Europe,Austrian,1
Belgium,ржмрзЗрж▓ржЬрж┐ржпрж╝рж╛ржо,BE,BEL,+32,EUR,ЁЯЗзЁЯЗк,Europe,Belgian,1
Poland,ржкрзЛрж▓рзНржпрж╛ржирзНржб,PL,POL,+48,PLN,ЁЯЗ╡ЁЯЗ▒,Europe,Polish,1
Portugal,ржкрж░рзНрждрзБржЧрж╛рж▓,PT,PRT,+351,EUR,ЁЯЗ╡ЁЯЗ╣,Europe,Portuguese,1
Ireland,ржЖржпрж╝рж╛рж░рж▓рзНржпрж╛ржирзНржб,IE,IRL,+353,EUR,ЁЯЗоЁЯЗк,Europe,Irish,1
New Zealand,ржирж┐ржЙржЬрж┐рж▓рзНржпрж╛ржирзНржб,NZ,NZL,+64,NZD,ЁЯЗ│ЁЯЗ┐,Oceania,New Zealander,1
South Africa,ржжржХрзНрж╖рж┐ржг ржЖржлрзНрж░рж┐ржХрж╛,ZA,ZAF,+27,ZAR,ЁЯЗ┐ЁЯЗж,Africa,South African,1
Brazil,ржмрзНрж░рж╛ржЬрж┐рж▓,BR,BRA,+55,BRL,ЁЯЗзЁЯЗ╖,Americas,Brazilian,1
Mexico,ржорзЗржХрзНрж╕рж┐ржХрзЛ,MX,MEX,+52,MXN,ЁЯЗ▓ЁЯЗ╜,Americas,Mexican,1
Argentina,ржЖрж░рзНржЬрзЗржирзНржЯрж┐ржирж╛,AR,ARG,+54,ARS,ЁЯЗжЁЯЗ╖,Americas,Argentinian,1
Chile,ржЪрж┐рж▓рж┐,CL,CHL,+56,CLP,ЁЯЗиЁЯЗ▒,Americas,Chilean,1
Russia,рж░рж╛рж╢рж┐ржпрж╝рж╛,RU,RUS,+7,RUB,ЁЯЗ╖ЁЯЗ║,Europe,Russian,1
Pakistan,ржкрж╛ржХрж┐рж╕рзНрждрж╛ржи,PK,PAK,+92,PKR,ЁЯЗ╡ЁЯЗ░,Asia,Pakistani,1
Nepal,ржирзЗржкрж╛рж▓,NP,NPL,+977,NPR,ЁЯЗ│ЁЯЗ╡,Asia,Nepali,1
Sri Lanka,рж╢рзНрж░рзАрж▓ржВржХрж╛,LK,LKA,+94,LKR,ЁЯЗ▒ЁЯЗ░,Asia,Sri Lankan,1
Maldives,ржорж╛рж▓ржжрзНржмрзАржк,MV,MDV,+960,MVR,ЁЯЗ▓ЁЯЗ╗,Asia,Maldivian,1
Indonesia,ржЗржирзНржжрзЛржирзЗрж╢рж┐ржпрж╝рж╛,ID,IDN,+62,IDR,ЁЯЗоЁЯЗй,Asia,Indonesian,1
Philippines,ржлрж┐рж▓рж┐ржкрж╛ржЗржи,PH,PHL,+63,PHP,ЁЯЗ╡ЁЯЗн,Asia,Filipino,1
Vietnam,ржнрж┐ржпрж╝рзЗрждржирж╛ржо,VN,VNM,+84,VND,ЁЯЗ╗ЁЯЗ│,Asia,Vietnamese,1
Hong Kong,рж╣ржВржХржВ,HK,HKG,+852,HKD,ЁЯЗнЁЯЗ░,Asia,Hong Konger,1
Taiwan,рждрж╛ржЗржУржпрж╝рж╛ржи,TW,TWN,+886,TWD,ЁЯЗ╣ЁЯЗ╝,Asia,Taiwanese,1
Israel,ржЗрж╕рж░рж╛ржпрж╝рзЗрж▓,IL,ISR,+972,ILS,ЁЯЗоЁЯЗ▒,Asia,Israeli,1
Egypt,ржорж┐рж╢рж░,EG,EGY,+20,EGP,ЁЯЗкЁЯЗм,Africa,Egyptian,1
Morocco,ржорж░ржХрзНржХрзЛ,MA,MAR,+212,MAD,ЁЯЗ▓ЁЯЗж,Africa,Moroccan,1
Kenya,ржХрзЗржирж┐ржпрж╝рж╛,KE,KEN,+254,KES,ЁЯЗ░ЁЯЗк,Africa,Kenyan,1
Nigeria,ржирж╛ржЗржЬрзЗрж░рж┐ржпрж╝рж╛,NG,NGA,+234,NGN,ЁЯЗ│ЁЯЗм,Africa,Nigerian,1
Ghana,ржШрж╛ржирж╛,GH,GHA,+233,GHS,ЁЯЗмЁЯЗн,Africa,Ghanaian,1
Czech Republic,ржЪрзЗржХ ржкрзНрж░ржЬрж╛рждржирзНрждрзНрж░,CZ,CZE,+420,CZK,ЁЯЗиЁЯЗ┐,Europe,Czech,1
Greece,ржЧрзНрж░рзАрж╕,GR,GRC,+30,EUR,ЁЯЗмЁЯЗ╖,Europe,Greek,1
Hungary,рж╣рж╛ржЩрзНржЧрзЗрж░рж┐,HU,HUN,+36,HUF,ЁЯЗнЁЯЗ║,Europe,Hungarian,1
Romania,рж░рзЛржорж╛ржирж┐ржпрж╝рж╛,RO,ROU,+40,RON,ЁЯЗ╖ЁЯЗ┤,Europe,Romanian,1
Ukraine,ржЗржЙржХрзНрж░рзЗржи,UA,UKR,+380,UAH,ЁЯЗ║ЁЯЗж,Europe,Ukrainian,1
Croatia,ржХрзНрж░рзЛржпрж╝рзЗрж╢рж┐ржпрж╝рж╛,HR,HRV,+385,HRK,ЁЯЗнЁЯЗ╖,Europe,Croatian,1
Bulgaria,ржмрзБрж▓ржЧрзЗрж░рж┐ржпрж╝рж╛,BG,BGR,+359,BGN,ЁЯЗзЁЯЗм,Europe,Bulgarian,1
Slovakia,рж╕рзНрж▓рзЛржнрж╛ржХрж┐ржпрж╝рж╛,SK,SVK,+421,EUR,ЁЯЗ╕ЁЯЗ░,Europe,Slovak,1
Lithuania,рж▓рж┐ржерзБржпрж╝рж╛ржирж┐ржпрж╝рж╛,LT,LTU,+370,EUR,ЁЯЗ▒ЁЯЗ╣,Europe,Lithuanian,1
Latvia,рж▓рж╛ржЯржнрж┐ржпрж╝рж╛,LV,LVA,+371,EUR,ЁЯЗ▒ЁЯЗ╗,Europe,Latvian,1
Estonia,ржПрж╕рзНрждрзЛржирж┐ржпрж╝рж╛,EE,EST,+372,EUR,ЁЯЗкЁЯЗк,Europe,Estonian,1
Serbia,рж╕рж╛рж░рзНржмрж┐ржпрж╝рж╛,RS,SRB,+381,RSD,ЁЯЗ╖ЁЯЗ╕,Europe,Serbian,1
Slovenia,рж╕рзНрж▓рзЛржнрзЗржирж┐ржпрж╝рж╛,SI,SVN,+386,EUR,ЁЯЗ╕ЁЯЗо,Europe,Slovenian,1
Iceland,ржЖржЗрж╕рж▓рзНржпрж╛ржирзНржб,IS,ISL,+354,ISK,ЁЯЗоЁЯЗ╕,Europe,Icelandic,1
Luxembourg,рж▓рзБржХрзНрж╕рзЗржоржмрж╛рж░рзНржЧ,LU,LUX,+352,EUR,ЁЯЗ▒ЁЯЗ║,Europe,Luxembourgish,1
Malta,ржорж╛рж▓рзНржЯрж╛,MT,MLT,+356,EUR,ЁЯЗ▓ЁЯЗ╣,Europe,Maltese,1
Cyprus,рж╕рж╛ржЗржкрзНрж░рж╛рж╕,CY,CYP,+357,EUR,ЁЯЗиЁЯЗ╛,Europe,Cypriot,1
Jordan,ржЬрж░рзНржбрж╛ржи,JO,JOR,+962,JOD,ЁЯЗпЁЯЗ┤,Asia,Jordanian,1
Lebanon,рж▓рзЗржмрж╛ржиржи,LB,LBN,+961,LBP,ЁЯЗ▒ЁЯЗз,Asia,Lebanese,1
Iraq,ржЗрж░рж╛ржХ,IQ,IRQ,+964,IQD,ЁЯЗоЁЯЗ╢,Asia,Iraqi,1
Iran,ржЗрж░рж╛ржи,IR,IRN,+98,IRR,ЁЯЗоЁЯЗ╖,Asia,Iranian,1
Afghanistan,ржЖржлржЧрж╛ржирж┐рж╕рзНрждрж╛ржи,AF,AFG,+93,AFN,ЁЯЗжЁЯЗл,Asia,Afghan,1
Kazakhstan,ржХрж╛ржЬрж╛ржЦрж╕рзНрждрж╛ржи,KZ,KAZ,+7,KZT,ЁЯЗ░ЁЯЗ┐,Asia,Kazakhstani,1
Uzbekistan,ржЙржЬржмрзЗржХрж┐рж╕рзНрждрж╛ржи,UZ,UZB,+998,UZS,ЁЯЗ║ЁЯЗ┐,Asia,Uzbek,1
Kyrgyzstan,ржХрж┐рж░ржЧрж┐ржЬрж╕рзНрждрж╛ржи,KG,KGZ,+996,KGS,ЁЯЗ░ЁЯЗм,Asia,Kyrgyz,1
Tajikistan,рждрж╛ржЬрж┐ржХрж┐рж╕рзНрждрж╛ржи,TJ,TJK,+992,TJS,ЁЯЗ╣ЁЯЗп,Asia,Tajik,1
Turkmenistan,рждрзБрж░рзНржХржорзЗржирж┐рж╕рзНрждрж╛ржи,TM,TKM,+993,TMT,ЁЯЗ╣ЁЯЗ▓,Asia,Turkmen,1
Azerbaijan,ржЖржЬрж╛рж░ржмрж╛ржЗржЬрж╛ржи,AZ,AZE,+994,AZN,ЁЯЗжЁЯЗ┐,Asia,Azerbaijani,1
Georgia,ржЬрж░рзНржЬрж┐ржпрж╝рж╛,GE,GEO,+995,GEL,ЁЯЗмЁЯЗк,Asia,Georgian,1
Armenia,ржЖрж░рзНржорзЗржирж┐ржпрж╝рж╛,AM,ARM,+374,AMD,ЁЯЗжЁЯЗ▓,Asia,Armenian,1
Mongolia,ржоржЩрзНржЧрзЛрж▓рж┐ржпрж╝рж╛,MN,MNG,+976,MNT,ЁЯЗ▓ЁЯЗ│,Asia,Mongolian,1
North Korea,ржЙрждрзНрждрж░ ржХрзЛрж░рж┐ржпрж╝рж╛,KP,PRK,+850,KPW,ЁЯЗ░ЁЯЗ╡,Asia,North Korean,1
Brunei,ржмрзНрж░рзБржирж╛ржЗ,BN,BRN,+673,BND,ЁЯЗзЁЯЗ│,Asia,Bruneian,1
Cambodia,ржХржорзНржмрзЛржбрж┐ржпрж╝рж╛,KH,KHM,+855,KHR,ЁЯЗ░ЁЯЗн,Asia,Cambodian,1
Laos,рж▓рж╛ржУрж╕,LA,LAO,+856,LAK,ЁЯЗ▒ЁЯЗж,Asia,Laotian,1
Myanmar,ржорж┐ржпрж╝рж╛ржиржорж╛рж░,MM,MMR,+95,MMK,ЁЯЗ▓ЁЯЗ▓,Asia,Burmese,1
Bhutan,ржнрзБржЯрж╛ржи,BT,BTN,+975,BTN,ЁЯЗзЁЯЗ╣,Asia,Bhutanese,1
Timor-Leste,рждрж┐ржорзБрж░-рж▓рзЗрж╕рзНрждрзЗ,TL,TLS,+670,USD,ЁЯЗ╣ЁЯЗ▒,Asia,Timorese,1
Syria,рж╕рж┐рж░рж┐ржпрж╝рж╛,SY,SYR,+963,SYP,ЁЯЗ╕ЁЯЗ╛,Asia,Syrian,1
Yemen,ржЗржпрж╝рзЗржорзЗржи,YE,YEM,+967,YER,ЁЯЗ╛ЁЯЗк,Asia,Yemeni,1
Palestine,ржкрзНржпрж╛рж▓рзЗрж╕рзНржЯрж╛ржЗржи,PS,PSE,+970,ILS,ЁЯЗ╡ЁЯЗ╕,Asia,Palestinian,1
Colombia,ржХрж▓ржорзНржмрж┐ржпрж╝рж╛,CO,COL,+57,COP,ЁЯЗиЁЯЗ┤,Americas,Colombian,1
Peru,ржкрзЗрж░рзБ,PE,PER,+51,PEN,ЁЯЗ╡ЁЯЗк,Americas,Peruvian,1
Venezuela,ржнрзЗржирзЗржЬрзБржпрж╝рзЗрж▓рж╛,VE,VEN,+58,VES,ЁЯЗ╗ЁЯЗк,Americas,Venezuelan,1
Ecuador,ржЗржХрзБржпрж╝рзЗржбрж░,EC,ECU,+593,USD,ЁЯЗкЁЯЗи,Americas,Ecuadorian,1
Bolivia,ржмрж▓рж┐ржнрж┐ржпрж╝рж╛,BO,BOL,+591,BOB,ЁЯЗзЁЯЗ┤,Americas,Bolivian,1
Paraguay,ржкрзНржпрж╛рж░рж╛ржЧрзБржпрж╝рзЗ,PY,PRY,+595,PYG,ЁЯЗ╡ЁЯЗ╛,Americas,Paraguayan,1
Uruguay,ржЙрж░рзБржЧрзБржпрж╝рзЗ,UY,URY,+598,UYU,ЁЯЗ║ЁЯЗ╛,Americas,Uruguayan,1
Costa Rica,ржХрзЛрж╕рзНржЯрж╛ рж░рж┐ржХрж╛,CR,CRI,+506,CRC,ЁЯЗиЁЯЗ╖,Americas,Costa Rican,1
Panama,ржкрж╛ржирж╛ржорж╛,PA,PAN,+507,PAB,ЁЯЗ╡ЁЯЗж,Americas,Panamanian,1
Cuba,ржХрж┐ржЙржмрж╛,CU,CUB,+53,CUP,ЁЯЗиЁЯЗ║,Americas,Cuban,1
Dominican Republic,ржбрзЛржорж┐ржирж┐ржХрж╛ржи рж░рж┐ржкрж╛ржмрж▓рж┐ржХ,DO,DOM,+1-809,DOP,ЁЯЗйЁЯЗ┤,Americas,Dominican,1
Guatemala,ржЧрзБржпрж╝рж╛рждрзЗржорж╛рж▓рж╛,GT,GTM,+502,GTQ,ЁЯЗмЁЯЗ╣,Americas,Guatemalan,1
Honduras,рж╣ржирзНржбрзБрж░рж╛рж╕,HN,HND,+504,HNL,ЁЯЗнЁЯЗ│,Americas,Honduran,1
Nicaragua,ржирж┐ржХрж╛рж░рж╛ржЧрзБржпрж╝рж╛,NI,NIC,+505,NIO,ЁЯЗ│ЁЯЗо,Americas,Nicaraguan,1
El Salvador,ржПрж▓ рж╕рж╛рж▓ржнрж╛ржжрж░,SV,SLV,+503,USD,ЁЯЗ╕ЁЯЗ╗,Americas,Salvadoran,1
Jamaica,ржЬрзНржпрж╛ржорж╛ржЗржХрж╛,JM,JAM,+1-876,JMD,ЁЯЗпЁЯЗ▓,Americas,Jamaican,1
Trinidad and Tobago,рждрзНрж░рж┐ржирж┐ржжрж╛ржж ржУ ржЯрзЛржмрж╛ржЧрзЛ,TT,TTO,+1-868,TTD,ЁЯЗ╣ЁЯЗ╣,Americas,Trinidadian,1
Barbados,ржмрж╛рж░рзНржмрж╛ржбрзЛрж╕,BB,BRB,+1-246,BBD,ЁЯЗзЁЯЗз,Americas,Barbadian,1
Bahamas,ржмрж╛рж╣рж╛ржорж╛,BS,BHS,+1-242,BSD,ЁЯЗзЁЯЗ╕,Americas,Bahamian,1
Belize,ржмрзЗрж▓рж┐ржЬ,BZ,BLZ,+501,BZD,ЁЯЗзЁЯЗ┐,Americas,Belizean,1
Guyana,ржЧрж╛ржпрж╝рж╛ржирж╛,GY,GUY,+592,GYD,ЁЯЗмЁЯЗ╛,Americas,Guyanese,1
Suriname,рж╕рзБрж░рж┐ржирж╛ржо,SR,SUR,+597,SRD,ЁЯЗ╕ЁЯЗ╖,Americas,Surinamese,1
Ethiopia,ржЗржерж┐ржУржкрж┐ржпрж╝рж╛,ET,ETH,+251,ETB,ЁЯЗкЁЯЗ╣,Africa,Ethiopian,1
Tanzania,рждрж╛ржиржЬрж╛ржирж┐ржпрж╝рж╛,TZ,TZA,+255,TZS,ЁЯЗ╣ЁЯЗ┐,Africa,Tanzanian,1
Uganda,ржЙржЧрж╛ржирзНржбрж╛,UG,UGA,+256,UGX,ЁЯЗ║ЁЯЗм,Africa,Ugandan,1
Algeria,ржЖрж▓ржЬрзЗрж░рж┐ржпрж╝рж╛,DZ,DZA,+213,DZD,ЁЯЗйЁЯЗ┐,Africa,Algerian,1
Tunisia,рждрж┐ржЙржирж┐рж╕рж┐ржпрж╝рж╛,TN,TUN,+216,TND,ЁЯЗ╣ЁЯЗ│,Africa,Tunisian,1
Libya,рж▓рж┐ржмрж┐ржпрж╝рж╛,LY,LBY,+218,LYD,ЁЯЗ▒ЁЯЗ╛,Africa,Libyan,1
Sudan,рж╕рзБржжрж╛ржи,SD,SDN,+249,SDG,ЁЯЗ╕ЁЯЗй,Africa,Sudanese,1
Somalia,рж╕рзЛржорж╛рж▓рж┐ржпрж╝рж╛,SO,SOM,+252,SOS,ЁЯЗ╕ЁЯЗ┤,Africa,Somali,1
Rwanda,рж░рзБржпрж╝рж╛ржирзНржбрж╛,RW,RWA,+250,RWF,ЁЯЗ╖ЁЯЗ╝,Africa,Rwandan,1
Burundi,ржмрзБрж░рзБржирзНржбрж┐,BI,BDI,+257,BIF,ЁЯЗзЁЯЗо,Africa,Burundian,1
Cameroon,ржХрзНржпрж╛ржорзЗрж░рзБржи,CM,CMR,+237,XAF,ЁЯЗиЁЯЗ▓,Africa,Cameroonian,1
Senegal,рж╕рзЗржирзЗржЧрж╛рж▓,SN,SEN,+221,XOF,ЁЯЗ╕ЁЯЗ│,Africa,Senegalese,1
Ivory Coast,ржЖржЗржнрж░рж┐ ржХрзЛрж╕рзНржЯ,CI,CIV,+225,XOF,ЁЯЗиЁЯЗо,Africa,Ivorian,1
Zimbabwe,ржЬрж┐ржорзНржмрж╛ржмрзБржпрж╝рзЗ,ZW,ZWE,+263,ZWL,ЁЯЗ┐ЁЯЗ╝,Africa,Zimbabwean,1
Zambia,ржЬрж╛ржорзНржмрж┐ржпрж╝рж╛,ZM,ZMB,+260,ZMW,ЁЯЗ┐ЁЯЗ▓,Africa,Zambian,1
Mozambique,ржорзЛржЬрж╛ржорзНржмрж┐ржХ,MZ,MOZ,+258,MZN,ЁЯЗ▓ЁЯЗ┐,Africa,Mozambican,1
Madagascar,ржорж╛ржжрж╛ржЧрж╛рж╕рзНржХрж╛рж░,MG,MDG,+261,MGA,ЁЯЗ▓ЁЯЗм,Africa,Malagasy,1
Botswana,ржмрждрж╕рзЛржпрж╝рж╛ржирж╛,BW,BWA,+267,BWP,ЁЯЗзЁЯЗ╝,Africa,Motswana,1
Namibia,ржирж╛ржорж┐ржмрж┐ржпрж╝рж╛,NA,NAM,+264,NAD,ЁЯЗ│ЁЯЗж,Africa,Namibian,1
Mauritius,ржорж░рж┐рж╢рж╛рж╕,MU,MUS,+230,MUR,ЁЯЗ▓ЁЯЗ║,Africa,Mauritian,1
Seychelles,рж╕рзЗрж╢рзЗрж▓рж╕,SC,SYC,+248,SCR,ЁЯЗ╕ЁЯЗи,Africa,Seychellois,1
Angola,ржЕрзНржпрж╛ржЩрзНржЧрзЛрж▓рж╛,AO,AGO,+244,AOA,ЁЯЗжЁЯЗ┤,Africa,Angolan,1
Mali,ржорж╛рж▓рж┐,ML,MLI,+223,XOF,ЁЯЗ▓ЁЯЗ▒,Africa,Malian,1
Burkina Faso,ржмрзБрж░рзНржХрж┐ржирж╛ ржлрж╛рж╕рзЛ,BF,BFA,+226,XOF,ЁЯЗзЁЯЗл,Africa,Burkinab├й,1
Niger,ржирж╛ржЗржЬрж╛рж░,NE,NER,+227,XOF,ЁЯЗ│ЁЯЗк,Africa,Nigerien,1
Chad,ржЪрж╛ржж,TD,TCD,+235,XAF,ЁЯЗ╣ЁЯЗй,Africa,Chadian,1
Benin,ржмрзЗржирж┐ржи,BJ,BEN,+229,XOF,ЁЯЗзЁЯЗп,Africa,Beninese,1
Togo,ржЯрзЛржЧрзЛ,TG,TGO,+228,XOF,ЁЯЗ╣ЁЯЗм,Africa,Togolese,1
Sierra Leone,рж╕рж┐ржпрж╝рзЗрж░рж╛ рж▓рж┐ржУржи,SL,SLE,+232,SLL,ЁЯЗ╕ЁЯЗ▒,Africa,Sierra Leonean,1
Liberia,рж▓рж╛ржЗржмрзЗрж░рж┐ржпрж╝рж╛,LR,LBR,+231,LRD,ЁЯЗ▒ЁЯЗ╖,Africa,Liberian,1
Mauritania,ржорзМрж░рж┐рждрж╛ржирж┐ржпрж╝рж╛,MR,MRT,+222,MRU,ЁЯЗ▓ЁЯЗ╖,Africa,Mauritanian,1
Gambia,ржЧрж╛ржорзНржмрж┐ржпрж╝рж╛,GM,GMB,+220,GMD,ЁЯЗмЁЯЗ▓,Africa,Gambian,1
Guinea,ржЧрж┐ржирж┐,GN,GIN,+224,GNF,ЁЯЗмЁЯЗ│,Africa,Guinean,1
Gabon,ржЧрзНржпрж╛ржмржи,GA,GAB,+241,XAF,ЁЯЗмЁЯЗж,Africa,Gabonese,1
Congo (Brazzaville),ржХржЩрзНржЧрзЛ,CG,COG,+242,XAF,ЁЯЗиЁЯЗм,Africa,Congolese,1
Congo (Kinshasa),ржХржЩрзНржЧрзЛ (ржХрж┐ржирж╢рж╛рж╕рж╛),CD,COD,+243,CDF,ЁЯЗиЁЯЗй,Africa,Congolese,1
Fiji,ржлрж┐ржЬрж┐,FJ,FJI,+679,FJD,ЁЯЗлЁЯЗп,Oceania,Fijian,1
Papua New Guinea,ржкрж╛ржкрзБржпрж╝рж╛ ржирж┐ржЙ ржЧрж┐ржирж┐,PG,PNG,+675,PGK,ЁЯЗ╡ЁЯЗм,Oceania,Papua New Guinean,1
Solomon Islands,рж╕рж▓рзЛржоржи ржжрзНржмрзАржкржкрзБржЮрзНржЬ,SB,SLB,+677,SBD,ЁЯЗ╕ЁЯЗз,Oceania,Solomon Islander,1
Vanuatu,ржнрж╛ржирзБржпрж╝рж╛рждрзБ,VU,VUT,+678,VUV,ЁЯЗ╗ЁЯЗ║,Oceania,Ni-Vanuatu,1
Samoa,рж╕рж╛ржорзЛржпрж╝рж╛,WS,WSM,+685,WST,ЁЯЗ╝ЁЯЗ╕,Oceania,Samoan,1
Tonga,ржЯрзЛржЩрзНржЧрж╛,TO,TON,+676,TOP,ЁЯЗ╣ЁЯЗ┤,Oceania,Tongan,1
Kiribati,ржХрж┐рж░рж┐ржмрж╛рждрж┐,KI,KIR,+686,AUD,ЁЯЗ░ЁЯЗо,Oceania,I-Kiribati,1
Micronesia,ржорж╛ржЗржХрзНрж░рзЛржирзЗрж╢рж┐ржпрж╝рж╛,FM,FSM,+691,USD,ЁЯЗлЁЯЗ▓,Oceania,Micronesian,1
Palau,ржкрж╛рж▓рж╛ржЙ,PW,PLW,+680,USD,ЁЯЗ╡ЁЯЗ╝,Oceania,Palauan,1
Marshall Islands,ржорж╛рж░рзНрж╢рж╛рж▓ ржжрзНржмрзАржкржкрзБржЮрзНржЬ,MH,MHL,+692,USD,ЁЯЗ▓ЁЯЗн,Oceania,Marshallese,1
Nauru,ржирж╛ржЙрж░рзБ,NR,NRU,+674,AUD,ЁЯЗ│ЁЯЗ╖,Oceania,Nauruan,1
Tuvalu,рждрзБржнрж╛рж▓рзБ,TV,TUV,+688,AUD,ЁЯЗ╣ЁЯЗ╗,Oceania,Tuvaluan,1
Vatican City,ржнрзНржпрж╛ржЯрж┐ржХрж╛ржи рж╕рж┐ржЯрж┐,VA,VAT,+379,EUR,ЁЯЗ╗ЁЯЗж,Europe,Vatican,1
San Marino,рж╕рж╛ржи ржорж╛рж░рж┐ржирзЛ,SM,SMR,+378,EUR,ЁЯЗ╕ЁЯЗ▓,Europe,Sammarinese,1
Monaco,ржорзЛржирж╛ржХрзЛ,MC,MCO,+377,EUR,ЁЯЗ▓ЁЯЗи,Europe,Mon├йgasque,1
Liechtenstein,рж▓рж┐рж╢ржЯрзЗржирж╕рзНржЯрж╛ржЗржи,LI,LIE,+423,CHF,ЁЯЗ▒ЁЯЗо,Europe,Liechtensteiner,1
Andorra,ржЕрзНржпрж╛ржирзНржбрзЛрж░рж╛,AD,AND,+376,EUR,ЁЯЗжЁЯЗй,Europe,Andorran,1
Albania,ржЖрж▓ржмрзЗржирж┐ржпрж╝рж╛,AL,ALB,+355,ALL,ЁЯЗжЁЯЗ▒,Europe,Albanian,1
Bosnia and Herzegovina,ржмрж╕ржирж┐ржпрж╝рж╛ ржУ рж╣рж╛рж░рзНржЬрзЗржЧрзЛржнрж┐ржирж╛,BA,BIH,+387,BAM,ЁЯЗзЁЯЗж,Europe,Bosnian,1
Kosovo,ржХрж╕рзЛржнрзЛ,XK,XKX,+383,EUR,ЁЯЗ╜ЁЯЗ░,Europe,Kosovar,1
North Macedonia,ржЙрждрзНрждрж░ ржорзЗрж╕рж┐ржбрзЛржирж┐ржпрж╝рж╛,MK,MKD,+389,MKD,ЁЯЗ▓ЁЯЗ░,Europe,Macedonian,1
Montenegro,ржоржирзНржЯрж┐ржирж┐ржЧрзНрж░рзЛ,ME,MNE,+382,EUR,ЁЯЗ▓ЁЯЗк,Europe,Montenegrin,1
Moldova,ржорж▓ржжрзЛржнрж╛,MD,MDA,+373,MDL,ЁЯЗ▓ЁЯЗй,Europe,Moldovan,1
Belarus,ржмрзЗрж▓рж╛рж░рзБрж╢,BY,BLR,+375,BYN,ЁЯЗзЁЯЗ╛,Europe,Belarusian,1
Eritrea,ржЗрж░рж┐рждрзНрж░рж┐ржпрж╝рж╛,ER,ERI,+291,ERN,ЁЯЗкЁЯЗ╖,Africa,Eritrean,1
Djibouti,ржЬрж┐ржмрзБрждрж┐,DJ,DJI,+253,DJF,ЁЯЗйЁЯЗп,Africa,Djiboutian,1
Comoros,ржХрзЛржорзЛрж░рзЛрж╕,KM,COM,+269,KMF,ЁЯЗ░ЁЯЗ▓,Africa,Comorian,1
Equatorial Guinea,ржирж┐рж░ржХрзНрж╖рзАржпрж╝ ржЧрж┐ржирж┐,GQ,GNQ,+240,XAF,ЁЯЗмЁЯЗ╢,Africa,Equatorial Guinean,1
Central African Republic,ржоржзрзНржп ржЖржлрзНрж░рж┐ржХрж╛ржи ржкрзНрж░ржЬрж╛рждржирзНрждрзНрж░,CF,CAF,+236,XAF,ЁЯЗиЁЯЗл,Africa,Central African,1
South Sudan,ржжржХрзНрж╖рж┐ржг рж╕рзБржжрж╛ржи,SS,SSD,+211,SSP,ЁЯЗ╕ЁЯЗ╕,Africa,South Sudanese,1
Lesotho,рж▓рзЗрж╕рзЛржерзЛ,LS,LSO,+266,LSL,ЁЯЗ▒ЁЯЗ╕,Africa,Basotho,1
Eswatini,ржПрж╕ржУржпрж╝рж╛рждрж┐ржирж┐,SZ,SWZ,+268,SZL,ЁЯЗ╕ЁЯЗ┐,Africa,Swazi,1
Cape Verde,ржХрзЗржк ржнрж╛рж░рзНржжрзЗ,CV,CPV,+238,CVE,ЁЯЗиЁЯЗ╗,Africa,Cape Verdean,1
Sao Tome and Principe,рж╕рж╛ржУ ржЯрзЛржорзЗ ржУ ржкрзНрж░рж┐ржирзНрж╕рж┐ржкрзЗ,ST,STP,+239,STN,ЁЯЗ╕ЁЯЗ╣,Africa,Sao Tomean,1
Guinea-Bissau,ржЧрж┐ржирж┐-ржмрж┐рж╕рж╛ржЙ,GW,GNB,+245,XOF,ЁЯЗмЁЯЗ╝,Africa,Bissau-Guinean,1
Saint Lucia,рж╕рзЗржирзНржЯ рж▓рзБрж╕рж┐ржпрж╝рж╛,LC,LCA,+1-758,XCD,ЁЯЗ▒ЁЯЗи,Americas,Saint Lucian,1
Saint Vincent and the Grenadines,рж╕рзЗржирзНржЯ ржнрж┐ржирж╕рзЗржирзНржЯ ржУ ржЧрзНрж░рзЗржирж╛ржбрж╛ржЗржирж╕,VC,VCT,+1-784,XCD,ЁЯЗ╗ЁЯЗи,Americas,Vincentian,1
Grenada,ржЧрзНрж░рзЗржирж╛ржбрж╛,GD,GRD,+1-473,XCD,ЁЯЗмЁЯЗй,Americas,Grenadian,1
Antigua and Barbuda,ржЕрзНржпрж╛ржирзНржЯрж┐ржЧрзБржпрж╝рж╛ ржУ ржмрж╛рж░ржмрзБржбрж╛,AG,ATG,+1-268,XCD,ЁЯЗжЁЯЗм,Americas,Antiguan,1
Dominica,ржбрзЛржорж┐ржирж┐ржХрж╛,DM,DMA,+1-767,XCD,ЁЯЗйЁЯЗ▓,Americas,Dominican,1
Saint Kitts and Nevis,рж╕рзЗржирзНржЯ ржХрж┐ржЯрж╕ ржУ ржирзЗржнрж┐рж╕,KN,KNA,+1-869,XCD,ЁЯЗ░ЁЯЗ│,Americas,Kittitian,1
