name,name_bn,iso_code_2,iso_code_3,phone_code,currency_code,flag_emoji,region,is_active
Bangladesh,ржмрж╛ржВрж▓рж╛ржжрзЗрж╢,BD,BGD,+880,BDT,ЁЯЗзЁЯЗй,Asia,1
United States,ржпрзБржХрзНрждрж░рж╛рж╖рзНржЯрзНрж░,US,USA,+1,USD,ЁЯЗ║ЁЯЗ╕,Americas,1
United Kingdom,ржпрзБржХрзНрждрж░рж╛ржЬрзНржп,GB,GBR,+44,GBP,ЁЯЗмЁЯЗз,Europe,1
Canada,ржХрж╛ржирж╛ржбрж╛,CA,CAN,+1,CAD,ЁЯЗиЁЯЗж,Americas,1
Australia,ржЕрж╕рзНржЯрзНрж░рзЗрж▓рж┐ржпрж╝рж╛,AU,AUS,+61,AUD,ЁЯЗжЁЯЗ║,Oceania,1
Germany,ржЬрж╛рж░рзНржорж╛ржирж┐,DE,DEU,+49,EUR,ЁЯЗйЁЯЗк,Europe,1
France,ржлрзНрж░рж╛ржирзНрж╕,FR,FRA,+33,EUR,ЁЯЗлЁЯЗ╖,Europe,1
India,ржнрж╛рж░ржд,IN,IND,+91,INR,ЁЯЗоЁЯЗ│,Asia,1
China,ржЪрзАржи,CN,CHN,+86,CNY,ЁЯЗиЁЯЗ│,Asia,1
Japan,ржЬрж╛ржкрж╛ржи,JP,JPN,+81,JPY,ЁЯЗпЁЯЗ╡,Asia,1
South Korea,ржжржХрзНрж╖рж┐ржг ржХрзЛрж░рж┐ржпрж╝рж╛,KR,KOR,+82,KRW,ЁЯЗ░ЁЯЗ╖,Asia,1
Singapore,рж╕рж┐ржЩрзНржЧрж╛ржкрзБрж░,SG,SGP,+65,SGD,ЁЯЗ╕ЁЯЗм,Asia,1
Malaysia,ржорж╛рж▓ржпрж╝рзЗрж╢рж┐ржпрж╝рж╛,MY,MYS,+60,MYR,ЁЯЗ▓ЁЯЗ╛,Asia,1
Thailand,ржерж╛ржЗрж▓рзНржпрж╛ржирзНржб,TH,THA,+66,THB,ЁЯЗ╣ЁЯЗн,Asia,1
United Arab Emirates,рж╕ржВржпрзБржХрзНржд ржЖрж░ржм ржЖржорж┐рж░рж╛ржд,AE,ARE,+971,AED,ЁЯЗжЁЯЗк,Asia,1
Saudi Arabia,рж╕рзМржжрж┐ ржЖрж░ржм,SA,SAU,+966,SAR,ЁЯЗ╕ЁЯЗж,Asia,1
Qatar,ржХрж╛рждрж╛рж░,QA,QAT,+974,QAR,ЁЯЗ╢ЁЯЗж,Asia,1
Kuwait,ржХрзБржпрж╝рзЗржд,KW,KWT,+965,KWD,ЁЯЗ░ЁЯЗ╝,Asia,1
Oman,ржУржорж╛ржи,OM,OMN,+968,OMR,ЁЯЗ┤ЁЯЗ▓,Asia,1
Bahrain,ржмрж╛рж╣рж░рж╛ржЗржи,BH,BHR,+973,BHD,ЁЯЗзЁЯЗн,Asia,1
Turkey,рждрзБрж░рж╕рзНржХ,TR,TUR,+90,TRY,ЁЯЗ╣ЁЯЗ╖,Asia,1
Italy,ржЗрждрж╛рж▓рж┐,IT,ITA,+39,EUR,ЁЯЗоЁЯЗ╣,Europe,1
Spain,рж╕рзНржкрзЗржи,ES,ESP,+34,EUR,ЁЯЗкЁЯЗ╕,Europe,1
Netherlands,ржирзЗржжрж╛рж░рж▓рзНржпрж╛ржирзНржб,NL,NLD,+31,EUR,ЁЯЗ│ЁЯЗ▒,Europe,1
Sweden,рж╕рзБржЗржбрзЗржи,SE,SWE,+46,SEK,ЁЯЗ╕ЁЯЗк,Europe,1
Norway,ржирж░ржУржпрж╝рзЗ,NO,NOR,+47,NOK,ЁЯЗ│ЁЯЗ┤,Europe,1
Denmark,ржбрзЗржиржорж╛рж░рзНржХ,DK,DNK,+45,DKK,ЁЯЗйЁЯЗ░,Europe,1
Finland,ржлрж┐ржирж▓рзНржпрж╛ржирзНржб,FI,FIN,+358,EUR,ЁЯЗлЁЯЗо,Europe,1
Switzerland,рж╕рзНржмрж┐ржЯржЬрж╛рж░рж▓рзНржпрж╛ржирзНржб,CH,CHE,+41,CHF,ЁЯЗиЁЯЗн,Europe,1
Austria,ржЕрж╕рзНржЯрзНрж░рж┐ржпрж╝рж╛,AT,AUT,+43,EUR,ЁЯЗжЁЯЗ╣,Europe,1
Belgium,ржмрзЗрж▓ржЬрж┐ржпрж╝рж╛ржо,BE,BEL,+32,EUR,ЁЯЗзЁЯЗк,Europe,1
Poland,ржкрзЛрж▓рзНржпрж╛ржирзНржб,PL,POL,+48,PLN,ЁЯЗ╡ЁЯЗ▒,Europe,1
Portugal,ржкрж░рзНрждрзБржЧрж╛рж▓,PT,PRT,+351,EUR,ЁЯЗ╡ЁЯЗ╣,Europe,1
Ireland,ржЖржпрж╝рж╛рж░рж▓рзНржпрж╛ржирзНржб,IE,IRL,+353,EUR,ЁЯЗоЁЯЗк,Europe,1
New Zealand,ржирж┐ржЙржЬрж┐рж▓рзНржпрж╛ржирзНржб,NZ,NZL,+64,NZD,ЁЯЗ│ЁЯЗ┐,Oceania,1
South Africa,ржжржХрзНрж╖рж┐ржг ржЖржлрзНрж░рж┐ржХрж╛,ZA,ZAF,+27,ZAR,ЁЯЗ┐ЁЯЗж,Africa,1
Brazil,ржмрзНрж░рж╛ржЬрж┐рж▓,BR,BRA,+55,BRL,ЁЯЗзЁЯЗ╖,Americas,1
Mexico,ржорзЗржХрзНрж╕рж┐ржХрзЛ,MX,MEX,+52,MXN,ЁЯЗ▓ЁЯЗ╜,Americas,1
Argentina,ржЖрж░рзНржЬрзЗржирзНржЯрж┐ржирж╛,AR,ARG,+54,ARS,ЁЯЗжЁЯЗ╖,Americas,1
Chile,ржЪрж┐рж▓рж┐,CL,CHL,+56,CLP,ЁЯЗиЁЯЗ▒,Americas,1
Russia,рж░рж╛рж╢рж┐ржпрж╝рж╛,RU,RUS,+7,RUB,ЁЯЗ╖ЁЯЗ║,Europe,1
Pakistan,ржкрж╛ржХрж┐рж╕рзНрждрж╛ржи,PK,PAK,+92,PKR,ЁЯЗ╡ЁЯЗ░,Asia,1
Nepal,ржирзЗржкрж╛рж▓,NP,NPL,+977,NPR,ЁЯЗ│ЁЯЗ╡,Asia,1
Sri Lanka,рж╢рзНрж░рзАрж▓ржВржХрж╛,LK,LKA,+94,LKR,ЁЯЗ▒ЁЯЗ░,Asia,1
Maldives,ржорж╛рж▓ржжрзНржмрзАржк,MV,MDV,+960,MVR,ЁЯЗ▓ЁЯЗ╗,Asia,1
Indonesia,ржЗржирзНржжрзЛржирзЗрж╢рж┐ржпрж╝рж╛,ID,IDN,+62,IDR,ЁЯЗоЁЯЗй,Asia,1
Philippines,ржлрж┐рж▓рж┐ржкрж╛ржЗржи,PH,PHL,+63,PHP,ЁЯЗ╡ЁЯЗн,Asia,1
Vietnam,ржнрж┐ржпрж╝рзЗрждржирж╛ржо,VN,VNM,+84,VND,ЁЯЗ╗ЁЯЗ│,Asia,1
Hong Kong,рж╣ржВржХржВ,HK,HKG,+852,HKD,ЁЯЗнЁЯЗ░,Asia,1
Taiwan,рждрж╛ржЗржУржпрж╝рж╛ржи,TW,TWN,+886,TWD,ЁЯЗ╣ЁЯЗ╝,Asia,1
Israel,ржЗрж╕рж░рж╛ржпрж╝рзЗрж▓,IL,ISR,+972,ILS,ЁЯЗоЁЯЗ▒,Asia,1
Egypt,ржорж┐рж╢рж░,EG,EGY,+20,EGP,ЁЯЗкЁЯЗм,Africa,1
Morocco,ржорж░ржХрзНржХрзЛ,MA,MAR,+212,MAD,ЁЯЗ▓ЁЯЗж,Africa,1
Kenya,ржХрзЗржирж┐ржпрж╝рж╛,KE,KEN,+254,KES,ЁЯЗ░ЁЯЗк,Africa,1
Nigeria,ржирж╛ржЗржЬрзЗрж░рж┐ржпрж╝рж╛,NG,NGA,+234,NGN,ЁЯЗ│ЁЯЗм,Africa,1
Ghana,ржШрж╛ржирж╛,GH,GHA,+233,GHS,ЁЯЗмЁЯЗн,Africa,1
Czech Republic,ржЪрзЗржХ ржкрзНрж░ржЬрж╛рждржирзНрждрзНрж░,CZ,CZE,+420,CZK,ЁЯЗиЁЯЗ┐,Europe,1
Greece,ржЧрзНрж░рзАрж╕,GR,GRC,+30,EUR,ЁЯЗмЁЯЗ╖,Europe,1
Hungary,рж╣рж╛ржЩрзНржЧрзЗрж░рж┐,HU,HUN,+36,HUF,ЁЯЗнЁЯЗ║,Europe,1
Romania,рж░рзЛржорж╛ржирж┐ржпрж╝рж╛,RO,ROU,+40,RON,ЁЯЗ╖ЁЯЗ┤,Europe,1
Ukraine,ржЗржЙржХрзНрж░рзЗржи,UA,UKR,+380,UAH,ЁЯЗ║ЁЯЗж,Europe,1
